{
    "links": {
        "self": "http://www.neowsapp.com/rest/v1/neo/3660312?api_key=iIulBulltgU6a56xZRHN4H3l9WmuAYTsLGpBGhQ2"
    },
    "id": "3660312",
    "neo_reference_id": "3660312",
    "name": "(2014 BT57)",
    "designation": "2014 BT57",
    "nasa_jpl_url": "http://ssd.jpl.nasa.gov/sbdb.cgi?sstr=3660312",
    "absolute_magnitude_h": 24.2,
    "estimated_diameter": {
        "kilometers": {
            "estimated_diameter_min": 0.0384197891,
            "estimated_diameter_max": 0.0859092601
        },
        "meters": {
            "estimated_diameter_min": 38.4197891064,
            "estimated_diameter_max": 85.9092601232
        },
        "miles": {
            "estimated_diameter_min": 0.0238729428,
            "estimated_diameter_max": 0.0533815229
        },
        "feet": {
            "estimated_diameter_min": 126.0491808919,
            "estimated_diameter_max": 281.8545369825
        }
    },
    "is_potentially_hazardous_asteroid": false,
    "close_approach_data": [
        {
            "close_approach_date": "2014-01-26",
            "close_approach_date_full": "2014-Jan-26 19:15",
            "epoch_date_close_approach": 1390763700000,
            "relative_velocity": {
                "kilometers_per_second": "20.1028075711",
                "kilometers_per_hour": "72370.1072559938",
                "miles_per_hour": "44967.9702558146"
            },
            "miss_distance": {
                "astronomical": "0.0503038636",
                "lunar": "19.5682029404",
                "kilometers": "7525350.847330532",
                "miles": "4676036.1858520616"
            },
            "orbiting_body": "Earth"
        }
    ],
    "orbital_data": {
        "orbit_id": "5",
        "orbit_determination_date": "2017-04-06 08:42:37",
        "first_observation_date": "2014-01-29",
        "last_observation_date": "2014-02-02",
        "data_arc_in_days": 4,
        "observations_used": 32,
        "orbit_uncertainty": "9",
        "minimum_orbit_intersection": ".0502951",
        "jupiter_tisserand_invariant": "4.303",
        "epoch_osculation": "2456687.5",
        "eccentricity": ".3149473395756655",
        "semi_major_axis": "1.494304639847477",
        "inclination": "36.174293937",
        "ascending_node_longitude": "127.003234390033",
        "orbital_period": "667.201700149748",
        "perihelion_distance": "1.023677369011941",
        "perihelion_argument": "342.3277177289735",
        "aphelion_distance": "1.964931910683012",
        "perihelion_time": "2456668.493592218494",
        "mean_anomaly": "10.25522986498155",
        "mean_motion": ".5395669704067014",
        "equinox": "J2000",
        "orbit_class": {
            "orbit_class_type": "AMO",
            "orbit_class_description": "Near-Earth asteroid orbits similar to that of 1221 Amor",
            "orbit_class_range": "1.017 AU < q (perihelion) < 1.3 AU"
        }
    },
    "is_sentry_object": false
}